[{"OBJECT_NAME":"ONEWEB-0628","OBJECT_ID":"2023-004AF","EPOCH":"2025-10-14T07:27:05.912640","MEAN_MOTION":13.12442006,"ECCENTRICITY":0.00017406,"INCLINATION":87.8961,"RA_OF_ASC_NODE":39.4913,"ARG_OF_PERICENTER":77.0235,"MEAN_ANOMALY":283.1087,"EPHEMERIS_TYPE":0,"CLASSIFICATION_TYPE":"U","NORAD_CAT_ID":55169,"ELEMENT_SET_NO":999,"REV_AT_EPOCH":13578,"BSTAR":0.0011967193,"MEAN_MOTION_DOT":4.43e-6,"MEAN_MOTION_DDOT":0},{"OBJECT_NAME":"ONEWEB-0629","OBJECT_ID":"2023-004AG","EPOCH":"2025-10-14T07:23:40.939008","MEAN_MOTION":13.17641365,"ECCENTRICITY":9.751e-5,"INCLINATION":87.9109,"RA_OF_ASC_NODE":54.7758,"ARG_OF_PERICENTER":102.2109,"MEAN_ANOMALY":257.9132,"EPHEMERIS_TYPE":0,"CLASSIFICATION_TYPE":"U","NORAD_CAT_ID":55170,"ELEMENT_SET_NO":999,"REV_AT_EPOCH":13520,"BSTAR":0.0052976342,"MEAN_MOTION_DOT":2.07e-5,"MEAN_MOTION_DDOT":0},{"OBJECT_NAME":"ONEWEB-0631","OBJECT_ID":"2023-004AH","EPOCH":"2025-10-14T04:26:58.767360","MEAN_MOTION":13.18687491,"ECCENTRICITY":0.00023742,"INCLINATION":87.9234,"RA_OF_ASC_NODE":24.2834,"ARG_OF_PERICENTER":97.9249,"MEAN_ANOMALY":262.2153,"EPHEMERIS_TYPE":0,"CLASSIFICATION_TYPE":"U","NORAD_CAT_ID":55171,"ELEMENT_SET_NO":999,"REV_AT_EPOCH":13725,"BSTAR":5.361557e-6,"MEAN_MOTION_DOT":1.5e-7,"MEAN_MOTION_DDOT":0},{"OBJECT_NAME":"ONEWEB-0709","OBJECT_ID":"2023-004AJ","EPOCH":"2025-10-14T07:11:48.086304","MEAN_MOTION":13.11417846,"ECCENTRICITY":0.00024212,"INCLINATION":87.8815,"RA_OF_ASC_NODE":70.0598,"ARG_OF_PERICENTER":108.9974,"MEAN_ANOMALY":251.1417,"EPHEMERIS_TYPE":0,"CLASSIFICATION_TYPE":"U","NORAD_CAT_ID":55172,"ELEMENT_SET_NO":999,"REV_AT_EPOCH":13364,"BSTAR":0.00086569455,"MEAN_MOTION_DOT":3.2e-6,"MEAN_MOTION_DDOT":0},{"OBJECT_NAME":"ONEWEB-0710","OBJECT_ID":"2023-004AK","EPOCH":"2025-10-14T07:44:20.986368","MEAN_MOTION":13.17649575,"ECCENTRICITY":0.00017399,"INCLINATION":87.9095,"RA_OF_ASC_NODE":54.7668,"ARG_OF_PERICENTER":91.6121,"MEAN_ANOMALY":268.521,"EPHEMERIS_TYPE":0,"CLASSIFICATION_TYPE":"U","NORAD_CAT_ID":55173,"ELEMENT_SET_NO":999,"REV_AT_EPOCH":13520,"BSTAR":0.00030051766,"MEAN_MOTION_DOT":1.3e-6,"MEAN_MOTION_DDOT":0},{"OBJECT_NAME":"ONEWEB-0711","OBJECT_ID":"2023-004AL","EPOCH":"2025-10-14T02:50:32.601696","MEAN_MOTION":13.11415482,"ECCENTRICITY":0.0001878,"INCLINATION":87.882,"RA_OF_ASC_NODE":70.0654,"ARG_OF_PERICENTER":70.7767,"MEAN_ANOMALY":289.3564,"EPHEMERIS_TYPE":0,"CLASSIFICATION_TYPE":"U","NORAD_CAT_ID":55174,"ELEMENT_SET_NO":999,"REV_AT_EPOCH":13358,"BSTAR":-0.0013833228,"MEAN_MOTION_DOT":-4.78e-6,"MEAN_MOTION_DDOT":0},{"OBJECT_NAME":"ONEWEB-0713","OBJECT_ID":"2023-004AM","EPOCH":"2025-10-14T03:17:24.196704","MEAN_MOTION":13.11417187,"ECCENTRICITY":0.00017389,"INCLINATION":87.8817,"RA_OF_ASC_NODE":70.0669,"ARG_OF_PERICENTER":85.3241,"MEAN_ANOMALY":274.8085,"EPHEMERIS_TYPE":0,"CLASSIFICATION_TYPE":"U","NORAD_CAT_ID":55175,"ELEMENT_SET_NO":999,"REV_AT_EPOCH":13357,"BSTAR":-0.00070435344,"MEAN_MOTION_DOT":-2.37e-6,"MEAN_MOTION_DDOT":0},{"OBJECT_NAME":"ONEWEB-0715","OBJECT_ID":"2023-004AN","EPOCH":"2025-10-14T03:10:04.842336","MEAN_MOTION":13.11417357,"ECCENTRICITY":0.0002373,"INCLINATION":87.8818,"RA_OF_ASC_NODE":70.0674,"ARG_OF_PERICENTER":97.8384,"MEAN_ANOMALY":262.3013,"EPHEMERIS_TYPE":0,"CLASSIFICATION_TYPE":"U","NORAD_CAT_ID":55176,"ELEMENT_SET_NO":999,"REV_AT_EPOCH":13361,"BSTAR":-0.0009156629,"MEAN_MOTION_DOT":-3.12e-6,"MEAN_MOTION_DDOT":0},{"OBJECT_NAME":"ONEWEB-0716","OBJECT_ID":"2023-004AP","EPOCH":"2025-10-14T07:34:36.578496","MEAN_MOTION":13.17651211,"ECCENTRICITY":0.00015414,"INCLINATION":87.9096,"RA_OF_ASC_NODE":54.768,"ARG_OF_PERICENTER":104.189,"MEAN_ANOMALY":255.9413,"EPHEMERIS_TYPE":0,"CLASSIFICATION_TYPE":"U","NORAD_CAT_ID":55177,"ELEMENT_SET_NO":999,"REV_AT_EPOCH":13520,"BSTAR":4.0034411e-5,"MEAN_MOTION_DOT":2.8e-7,"MEAN_MOTION_DDOT":0},{"OBJECT_NAME":"ONEWEB-0717","OBJECT_ID":"2023-004AQ","EPOCH":"2025-10-14T07:10:19.650720","MEAN_MOTION":13.17647961,"ECCENTRICITY":0.00020955,"INCLINATION":87.9106,"RA_OF_ASC_NODE":54.7369,"ARG_OF_PERICENTER":78.6432,"MEAN_ANOMALY":281.4935,"EPHEMERIS_TYPE":0,"CLASSIFICATION_TYPE":"U","NORAD_CAT_ID":55178,"ELEMENT_SET_NO":999,"REV_AT_EPOCH":13525,"BSTAR":-2.3671538e-5,"MEAN_MOTION_DOT":4.0e-8,"MEAN_MOTION_DDOT":0},{"OBJECT_NAME":"ONEWEB-0719","OBJECT_ID":"2023-004AR","EPOCH":"2025-10-14T07:24:54.982944","MEAN_MOTION":13.17652546,"ECCENTRICITY":0.00015768,"INCLINATION":87.9109,"RA_OF_ASC_NODE":54.7178,"ARG_OF_PERICENTER":95.544,"MEAN_ANOMALY":264.5871,"EPHEMERIS_TYPE":0,"CLASSIFICATION_TYPE":"U","NORAD_CAT_ID":55179,"ELEMENT_SET_NO":999,"REV_AT_EPOCH":13520,"BSTAR":-0.0017086466,"MEAN_MOTION_DOT":-6.51e-6,"MEAN_MOTION_DDOT":0},{"OBJECT_NAME":"ONEWEB-0530","OBJECT_ID":"2023-029A","EPOCH":"2025-10-14T08:02:59.787744","MEAN_MOTION":13.20769774,"ECCENTRICITY":0.00018696,"INCLINATION":87.9221,"RA_OF_ASC_NODE":323.5153,"ARG_OF_PERICENTER":79.7091,"MEAN_ANOMALY":280.4253,"EPHEMERIS_TYPE":0,"CLASSIFICATION_TYPE":"U","NORAD_CAT_ID":55796,"ELEMENT_SET_NO":999,"REV_AT_EPOCH":12869,"BSTAR":6.0203913e-5,"MEAN_MOTION_DOT":3.7e-7,"MEAN_MOTION_DDOT":0},{"OBJECT_NAME":"ONEWEB-0534","OBJECT_ID":"2023-029B","EPOCH":"2025-10-14T04:06:38.196288","MEAN_MOTION":13.20768967,"ECCENTRICITY":0.00018399,"INCLINATION":87.9217,"RA_OF_ASC_NODE":323.5504,"ARG_OF_PERICENTER":97.942,"MEAN_ANOMALY":262.1922,"EPHEMERIS_TYPE":0,"CLASSIFICATION_TYPE":"U","NORAD_CAT_ID":55797,"ELEMENT_SET_NO":999,"REV_AT_EPOCH":12867,"BSTAR":-0.00030615377,"MEAN_MOTION_DOT":-1.11e-6,"MEAN_MOTION_DDOT":0},{"OBJECT_NAME":"ONEWEB-0556","OBJECT_ID":"2023-029C","EPOCH":"2025-10-14T04:15:43.213536","MEAN_MOTION":13.2077453,"ECCENTRICITY":0.00011664,"INCLINATION":87.9222,"RA_OF_ASC_NODE":323.5464,"ARG_OF_PERICENTER":86.7161,"MEAN_ANOMALY":273.4105,"EPHEMERIS_TYPE":0,"CLASSIFICATION_TYPE":"U","NORAD_CAT_ID":55798,"ELEMENT_SET_NO":999,"REV_AT_EPOCH":12867,"BSTAR":-4.5590515e-5,"MEAN_MOTION_DOT":-6.0e-8,"MEAN_MOTION_DDOT":0},{"OBJECT_NAME":"ONEWEB-0562","OBJECT_ID":"2023-029D","EPOCH":"2025-10-14T03:57:34.312608","MEAN_MOTION":13.20772058,"ECCENTRICITY":0.00016154,"INCLINATION":87.9216,"RA_OF_ASC_NODE":323.5341,"ARG_OF_PERICENTER":68.5786,"MEAN_ANOMALY":291.5519,"EPHEMERIS_TYPE":0,"CLASSIFICATION_TYPE":"U","NORAD_CAT_ID":55799,"ELEMENT_SET_NO":999,"REV_AT_EPOCH":12867,"BSTAR":4.9224508e-5,"MEAN_MOTION_DOT":3.3e-7,"MEAN_MOTION_DDOT":0},{"OBJECT_NAME":"ONEWEB-0563","OBJECT_ID":"2023-029E","EPOCH":"2025-10-14T03:48:26.688672","MEAN_MOTION":13.20773321,"ECCENTRICITY":0.00016769,"INCLINATION":87.9223,"RA_OF_ASC_NODE":323.5594,"ARG_OF_PERICENTER":102.5137,"MEAN_ANOMALY":257.6184,"EPHEMERIS_TYPE":0,"CLASSIFICATION_TYPE":"U","NORAD_CAT_ID":55800,"ELEMENT_SET_NO":999,"REV_AT_EPOCH":12866,"BSTAR":-7.289972e-6,"MEAN_MOTION_DOT":1.0e-7,"MEAN_MOTION_DDOT":0},{"OBJECT_NAME":"ONEWEB-0564","OBJECT_ID":"2023-029F","EPOCH":"2025-10-14T03:39:22.544928","MEAN_MOTION":13.20769465,"ECCENTRICITY":0.00017782,"INCLINATION":87.9215,"RA_OF_ASC_NODE":323.54,"ARG_OF_PERICENTER":83.384,"MEAN_ANOMALY":276.7495,"EPHEMERIS_TYPE":0,"CLASSIFICATION_TYPE":"U","NORAD_CAT_ID":55801,"ELEMENT_SET_NO":999,"REV_AT_EPOCH":12867,"BSTAR":6.7319426e-5,"MEAN_MOTION_DOT":4.0e-7,"MEAN_MOTION_DDOT":0}]
