ONEWEB-0628             
1 55169U 23004AF  25287.31048510  .00000443  00000+0  11967-2 0  9997
2 55169  87.8961  39.4913 0001740  77.0235 283.1087 13.12442006135788
ONEWEB-0629             
1 55170U 23004AG  25287.30811272  .00002070  00000+0  52976-2 0  9994
2 55170  87.9109  54.7758 0000975 102.2109 257.9132 13.17641365135203
ONEWEB-0631             
1 55171U 23004AH  25287.18540240  .00000015  00000+0  53616-5 0  9997
2 55171  87.9234  24.2834 0002374  97.9249 262.2153 13.18687491137250
ONEWEB-0709             
1 55172U 23004AJ  25287.29986211  .00000320  00000+0  86569-3 0  9992
2 55172  87.8815  70.0598 0002421 108.9974 251.1417 13.11417846133649
ONEWEB-0710             
1 55173U 23004AK  25287.32246512  .00000130  00000+0  30052-3 0  9995
2 55173  87.9095  54.7668 0001739  91.6121 268.5210 13.17649575135200
ONEWEB-0711             
1 55174U 23004AL  25287.11843289 -.00000478  00000+0 -13833-2 0  9991
2 55174  87.8820  70.0654 0001878  70.7767 289.3564 13.11415482133584
ONEWEB-0713             
1 55175U 23004AM  25287.13708561 -.00000237  00000+0 -70435-3 0  9992
2 55175  87.8817  70.0669 0001738  85.3241 274.8085 13.11417187133571
ONEWEB-0715             
1 55176U 23004AN  25287.13200049 -.00000312  00000+0 -91566-3 0  9993
2 55176  87.8818  70.0674 0002373  97.8384 262.3013 13.11417357133618
ONEWEB-0716             
1 55177U 23004AP  25287.31570114  .00000028  00000+0  40034-4 0  9994
2 55177  87.9096  54.7680 0001541 104.1890 255.9413 13.17651211135208
ONEWEB-0717             
1 55178U 23004AQ  25287.29883855  .00000004  00000+0 -23672-4 0  9995
2 55178  87.9106  54.7369 0002095  78.6432 281.4935 13.17647961135252
ONEWEB-0719             
1 55179U 23004AR  25287.30896971 -.00000651  00000+0 -17086-2 0  9990
2 55179  87.9109  54.7178 0001576  95.5440 264.5871 13.17652546135205
ONEWEB-0530             
1 55796U 23029A   25287.33541421  .00000037  00000+0  60204-4 0  9990
2 55796  87.9221 323.5153 0001869  79.7091 280.4253 13.20769774128698
ONEWEB-0534             
1 55797U 23029B   25287.17127542 -.00000111  00000+0 -30615-3 0  9994
2 55797  87.9217 323.5504 0001839  97.9420 262.1922 13.20768967128670
ONEWEB-0556             
1 55798U 23029C   25287.17758349 -.00000006  00000+0 -45591-4 0  9993
2 55798  87.9222 323.5464 0001166  86.7161 273.4105 13.20774530128674
ONEWEB-0562             
1 55799U 23029D   25287.16498047  .00000033  00000+0  49225-4 0  9995
2 55799  87.9216 323.5341 0001615  68.5786 291.5519 13.20772058128675
ONEWEB-0563             
1 55800U 23029E   25287.15864223  .00000010  00000+0 -72900-5 0  9993
2 55800  87.9223 323.5594 0001676 102.5137 257.6184 13.20773321128666
ONEWEB-0564             
1 55801U 23029F   25287.15234427  .00000040  00000+0  67319-4 0  9990
2 55801  87.9215 323.5400 0001778  83.3840 276.7495 13.20769465128676
